CONNECTA IOT-7
1 62715U 25009DL  25322.18455430  .00001774  00000+0  17360-3 0  9999
2 62715  97.7290  39.7097 0002125 131.2011 228.9393 14.93570792 45845
